{
  "type": "FeatureCollection",
  "features": [
    {
      "type": "Feature",
      "properties": {
        "norad_id": 58647,
        "name": "TIANMU-1 13",
        "group": "weather",
        "lat": 37.978135743782325,
        "lon": -177.73907619235504,
        "alt_km": 494.50044748624896,
        "timestamp": "2025-12-02T15:49:06.826665+00:00",
        "meta_object_name": "TIANMU-1 13",
        "meta_object_id": "2023-205C",
        "meta_epoch": "2025-12-02T07:19:18.802272",
        "meta_mean_motion": 15.24316375,
        "meta_eccentricity": 0.00064718,
        "meta_inclination": 97.3632,
        "meta_ra_of_asc_node": 356.1191,
        "meta_arg_of_pericenter": 313.9787,
        "meta_mean_anomaly": 46.0917,
        "meta_ephemeris_type": 0,
        "meta_classification_type": "U",
        "meta_norad_cat_id": 58647,
        "meta_element_set_no": 999,
        "meta_rev_at_epoch": 10748,
        "meta_bstar": 0.00030448243,
        "meta_mean_motion_dot": 7.379e-05,
        "meta_mean_motion_ddot": 0,
        "tle_line1": "1 58647U 23205C   25336.30507873  .00007379  00000+0  30448-3 0  9991",
        "tle_line2": "2 58647  97.3632 356.1191 0006471 313.9787  46.0917 15.24316375107488"
      },
      "geometry": {
        "type": "Point",
        "coordinates": [
          -177.73907619235504,
          37.978135743782325
        ]
      }
    },
    {
      "type": "Feature",
      "properties": {
        "norad_id": 58648,
        "name": "TIANMU-1 14",
        "group": "weather",
        "lat": -52.563821370892896,
        "lon": 166.10938726860508,
        "alt_km": 499.32271401534126,
        "timestamp": "2025-12-02T15:49:06.826686+00:00",
        "meta_object_name": "TIANMU-1 14",
        "meta_object_id": "2023-205D",
        "meta_epoch": "2025-12-02T06:55:14.889792",
        "meta_mean_motion": 15.24300794,
        "meta_eccentricity": 0.00073989,
        "meta_inclination": 97.3564,
        "meta_ra_of_asc_node": 355.4611,
        "meta_arg_of_pericenter": 318.0438,
        "meta_mean_anomaly": 42.0232,
        "meta_ephemeris_type": 0,
        "meta_classification_type": "U",
        "meta_norad_cat_id": 58648,
        "meta_element_set_no": 999,
        "meta_rev_at_epoch": 10748,
        "meta_bstar": 0.00032215086,
        "meta_mean_motion_dot": 7.809e-05,
        "meta_mean_motion_ddot": 0,
        "tle_line1": "1 58648U 23205D   25336.28836678  .00007809  00000+0  32215-3 0  9999",
        "tle_line2": "2 58648  97.3564 355.4611 0007398 318.0438  42.0232 15.24300794107484"
      },
      "geometry": {
        "type": "Point",
        "coordinates": [
          166.10938726860508,
          -52.563821370892896
        ]
      }
    },
    {
      "type": "Feature",
      "properties": {
        "norad_id": 58660,
        "name": "TIANMU-1 19",
        "group": "weather",
        "lat": 8.453249588005486,
        "lon": 86.60577632084114,
        "alt_km": 484.09809265934473,
        "timestamp": "2025-12-02T15:49:06.826698+00:00",
        "meta_object_name": "TIANMU-1 19",
        "meta_object_id": "2023-208A",
        "meta_epoch": "2025-12-02T07:55:14.153088",
        "meta_mean_motion": 15.27547329,
        "meta_eccentricity": 0.00041623,
        "meta_inclination": 97.4389,
        "meta_ra_of_asc_node": 87.3902,
        "meta_arg_of_pericenter": 299.3452,
        "meta_mean_anomaly": 60.7371,
        "meta_ephemeris_type": 0,
        "meta_classification_type": "U",
        "meta_norad_cat_id": 58660,
        "meta_element_set_no": 999,
        "meta_rev_at_epoch": 10723,
        "meta_bstar": 0.00044233817,
        "meta_mean_motion_dot": 0.00011853,
        "meta_mean_motion_ddot": 0,
        "tle_line1": "1 58660U 23208A   25336.33002492  .00011853  00000+0  44234-3 0  9999",
        "tle_line2": "2 58660  97.4389  87.3902 0004162 299.3452  60.7371 15.27547329107235"
      },
      "geometry": {
        "type": "Point",
        "coordinates": [
          86.60577632084114,
          8.453249588005486
        ]
      }
    },
    {
      "type": "Feature",
      "properties": {
        "norad_id": 58661,
        "name": "TIANMU-1 20",
        "group": "weather",
        "lat": 39.25592775364942,
        "lon": 82.03186227832543,
        "alt_km": 476.7778361674882,
        "timestamp": "2025-12-02T15:49:06.826708+00:00",
        "meta_object_name": "TIANMU-1 20",
        "meta_object_id": "2023-208B",
        "meta_epoch": "2025-12-02T06:13:12.670752",
        "meta_mean_motion": 15.2873893,
        "meta_eccentricity": 0.00065218,
        "meta_inclination": 97.4326,
        "meta_ra_of_asc_node": 87.7568,
        "meta_arg_of_pericenter": 309.3261,
        "meta_mean_anomaly": 50.74,
        "meta_ephemeris_type": 0,
        "meta_classification_type": "U",
        "meta_norad_cat_id": 58661,
        "meta_element_set_no": 999,
        "meta_rev_at_epoch": 10729,
        "meta_bstar": 0.00042285583,
        "meta_mean_motion_dot": 0.00011751,
        "meta_mean_motion_ddot": 0,
        "tle_line1": "1 58661U 23208B   25336.25917443  .00011751  00000+0  42286-3 0  9994",
        "tle_line2": "2 58661  97.4326  87.7568 0006521 309.3261  50.7400 15.28738930107299"
      },
      "geometry": {
        "type": "Point",
        "coordinates": [
          82.03186227832543,
          39.25592775364942
        ]
      }
    },
    {
      "type": "Feature",
      "properties": {
        "norad_id": 58662,
        "name": "TIANMU-1 21",
        "group": "weather",
        "lat": -45.29088285903723,
        "lon": 97.60284777805178,
        "alt_km": 474.97209232499245,
        "timestamp": "2025-12-02T15:49:06.826718+00:00",
        "meta_object_name": "TIANMU-1 21",
        "meta_object_id": "2023-208C",
        "meta_epoch": "2025-12-02T08:10:33.436128",
        "meta_mean_motion": 15.31199954,
        "meta_eccentricity": 0.00060195,
        "meta_inclination": 97.4373,
        "meta_ra_of_asc_node": 89.7004,
        "meta_arg_of_pericenter": 303.4525,
        "meta_mean_anomaly": 56.614,
        "meta_ephemeris_type": 0,
        "meta_classification_type": "U",
        "meta_norad_cat_id": 58662,
        "meta_element_set_no": 999,
        "meta_rev_at_epoch": 10740,
        "meta_bstar": 0.00045705691,
        "meta_mean_motion_dot": 0.00013713,
        "meta_mean_motion_ddot": 0,
        "tle_line1": "1 58662U 23208C   25336.34066477  .00013713  00000+0  45706-3 0  9997",
        "tle_line2": "2 58662  97.4373  89.7004 0006019 303.4525  56.6140 15.31199954107409"
      },
      "geometry": {
        "type": "Point",
        "coordinates": [
          97.60284777805178,
          -45.29088285903723
        ]
      }
    },
    {
      "type": "Feature",
      "properties": {
        "norad_id": 58663,
        "name": "TIANMU-1 22",
        "group": "weather",
        "lat": 18.092131372281656,
        "lon": 85.33553296145615,
        "alt_km": 482.71708658049465,
        "timestamp": "2025-12-02T15:49:06.826728+00:00",
        "meta_object_name": "TIANMU-1 22",
        "meta_object_id": "2023-208D",
        "meta_epoch": "2025-12-02T06:18:16.670016",
        "meta_mean_motion": 15.27321542,
        "meta_eccentricity": 0.00031558,
        "meta_inclination": 97.4383,
        "meta_ra_of_asc_node": 87.3866,
        "meta_arg_of_pericenter": 335.339,
        "meta_mean_anomaly": 24.7697,
        "meta_ephemeris_type": 0,
        "meta_classification_type": "U",
        "meta_norad_cat_id": 58663,
        "meta_element_set_no": 999,
        "meta_rev_at_epoch": 10723,
        "meta_bstar": 0.00041791594,
        "meta_mean_motion_dot": 0.00011116,
        "meta_mean_motion_ddot": 0,
        "tle_line1": "1 58663U 23208D   25336.26269294  .00011116  00000+0  41792-3 0  9997",
        "tle_line2": "2 58663  97.4383  87.3866 0003155 335.3390  24.7697 15.27321542107232"
      },
      "geometry": {
        "type": "Point",
        "coordinates": [
          85.33553296145615,
          18.092131372281656
        ]
      }
    },
    {
      "type": "Feature",
      "properties": {
        "norad_id": 58700,
        "name": "TIANMU-1 15",
        "group": "weather",
        "lat": -71.16086406362365,
        "lon": -44.428709759673026,
        "alt_km": 499.4397425432353,
        "timestamp": "2025-12-02T15:49:06.826738+00:00",
        "meta_object_name": "TIANMU-1 15",
        "meta_object_id": "2024-004A",
        "meta_epoch": "2025-12-02T06:50:11.775264",
        "meta_mean_motion": 15.24457275,
        "meta_eccentricity": 0.00058741,
        "meta_inclination": 97.4628,
        "meta_ra_of_asc_node": 157.7924,
        "meta_arg_of_pericenter": 340.144,
        "meta_mean_anomaly": 19.9568,
        "meta_ephemeris_type": 0,
        "meta_classification_type": "U",
        "meta_norad_cat_id": 58700,
        "meta_element_set_no": 999,
        "meta_rev_at_epoch": 10575,
        "meta_bstar": 0.00033488257,
        "meta_mean_motion_dot": 8.156e-05,
        "meta_mean_motion_ddot": 0,
        "tle_line1": "1 58700U 24004A   25336.28485851  .00008156  00000+0  33488-3 0  9998",
        "tle_line2": "2 58700  97.4628 157.7924 0005874 340.1440  19.9568 15.24457275105751"
      },
      "geometry": {
        "type": "Point",
        "coordinates": [
          -44.428709759673026,
          -71.16086406362365
        ]
      }
    }
  ]
}